ONEWEB-0102             
1 47258U 20100A   24238.92091192  .00000001  00000+0 -32896-4 0  9994
2 47258  87.8918 122.1908 0001858  81.8520 278.2819 13.12439980178124
ONEWEB-0109             
1 47259U 20100B   24239.15772917 -.00000218  00000+0 -64137-3 0  9995
2 47259  87.8918 122.1090 0001829  82.7095 277.4241 13.12440085177983
ONEWEB-0110             
1 47260U 20100C   24238.95498449 -.00000026  00000+0 -10739-3 0  9995
2 47260  87.8915 122.1510 0001686  80.0041 280.1277 13.12443212178124
ONEWEB-0111             
1 47261U 20100D   24238.90956429  .00000322  00000+0  85897-3 0  9992
2 47261  87.8918 122.1595 0001806  79.2649 280.8682 13.12440502177955
ONEWEB-0117             
1 47263U 20100F   24239.16097075 -.00000318  00000+0 -91992-3 0  9996
2 47263  87.8919 122.1004 0001770  76.5534 283.5791 13.12440248177954
ONEWEB-0118             
1 47264U 20100G   24238.96470176  .00000252  00000+0  66641-3 0  9999
2 47264  87.8917 122.1428 0002229  78.0109 282.1270 13.12446001178128
ONEWEB-0119             
1 47265U 20100H   24239.14476307  .00000169  00000+0  43423-3 0  9993
2 47265  87.8918 122.1457 0001747  78.7510 281.3814 13.12440406178127
